HORYU-4                 
1 41340U 16012D   19283.73033230  .00000497  00000-0  30943-4 0  9999
2 41340  31.0042 128.2710 0014004 181.4527 178.6069 15.01328445200161
E-ST@R-II               
1 41459U 16025D   19283.71996834  .00001039  00000-0  57276-4 0  9991
2 41459  98.1002  15.9587 0166119 335.5294  23.8119 15.05696149189700
AAUSAT 4                
1 41460U 16025E   19283.68312818  .00000863  00000-0  47256-4 0  9994
2 41460  98.0934  17.4540 0156351 327.2045  31.9558 15.07668482189843
DIWATA-1                
1 41463U 98067HT  19283.64738148  .00036981  00000-0  14282-3 0  9999
2 41463  51.6310  13.0769 0001234 352.7443 148.5303 15.86886527197838
BEESAT-4                
1 41619U 16040W   19283.16274186  .00001212  00000-0  53892-4 0  9997
2 41619  97.3560 343.2132 0010890 353.2968   6.8121 15.23353669171139
CANX-7                  
1 41788U 16059F   19283.66046574  .00007609  00000-0  11318-2 0  9998
2 41788  98.2440   0.9905 0023652  16.6377 343.5555 14.75049540162804
RAVAN                   
1 41849U 16067B   19283.72787705 -.00000234  00000-0 -14508-4 0  9995
2 41849  97.9247  24.5760 0008718   8.1634 351.9728 14.98320615159072
CELTEE 1                
1 41850U 16067C   19282.83291139  .00000738  00000-0  69323-4 0  9991
2 41850  97.9205  22.0854 0009022  18.1122 342.0419 14.97057826158850
OPTICUBE 04             
1 41851U 16067D   19282.85683591 -.00000470  00000-0 -35720-4 0  9990
2 41851  97.9194  21.8531 0009305  16.5485 343.6038 14.96837881158844
AEROCUBE 8D             
1 41852U 16067E   19283.26694119 -.00000053  00000-0  64966-6 0  9997
2 41852  97.9200  22.0941 0009800  14.2039 345.9455 14.96763618158889
AEROCUBE 8C             
1 41853U 16067F   19282.82461449  .00000722  00000-0  68440-4 0  9998
2 41853  97.9201  21.5728 0010153  19.2361 340.9241 14.96729463158815
PROMETHEUS 2-1          
1 41854U 16067G   19283.24263899  .00000426  00000-0  42322-4 0  9997
2 41854  97.9215  22.1832 0010632  16.9729 343.1846 14.96977649158882
PROMETHEUS 2-3          
1 41855U 16067H   19283.24455276  .00000280  00000-0  29648-4 0  9994
2 41855  97.9219  22.2058 0010831  16.8659 343.2921 14.96983946158882
INS-1B                  
1 41954U 17008G   19282.75431238  .00001168  00000-0  50850-4 0  9992
2 41954  97.3889 346.2572 0010828 105.8934 254.3497 15.24161198147023
BGUSAT                  
1 41999U 17008BD  19283.68810393  .00002442  00000-0  96357-4 0  9995
2 41999  97.3976 350.0448 0009842 113.5616 246.6657 15.26470013146685
DIDO-2                  
1 42000U 17008BE  19283.73393758  .00000915  00000-0  40612-4 0  9992
2 42000  97.3900 347.7743 0010014 118.4680 241.7568 15.24051760146572
PEASSS                  
1 42015U 17008BV  19283.23074826  .00001053  00000-0  44985-4 0  9996
2 42015  97.3912 348.4159 0007788 122.7676 237.4314 15.25054061147050
AL-FARABI 1             
1 42016U 17008BW  19283.11521907  .00001339  00000-0  55286-4 0  9994
2 42016  97.3929 348.9786 0007669 122.4506 237.7475 15.25738937147194
NAYIF-1 (EO-88)         
1 42017U 17008BX  19282.77228248  .00001360  00000-0  56052-4 0  9994
2 42017  97.3926 348.6504 0007659 123.3798 236.8174 15.25773447147167
ALTAIR PATHFINDER       
1 42711U 98067LS  19282.82972159  .00108880  15593-4  33033-3 0  9997
2 42711  51.6307  59.2055 0003361 288.4918  71.5723 15.91956813137035
NSIGHT                  
1 42726U 98067MF  19283.65838116  .00045802  00000-0  28966-3 0  9995
2 42726  51.6325  84.0144 0004640 256.7946 103.2536 15.76096341135763
UCLSAT                  
1 42765U 17036A   19282.82037864  .00001105  00000-0  49967-4 0  9997
2 42765  97.3392 338.3481 0011278 183.7395 176.3760 15.22936092127687
LITUANICASAT-2          
1 42768U 17036D   19282.92253297  .00001720  00000-0  75645-4 0  9996
2 42768  97.3431 338.1232 0015193 175.6977 184.4393 15.23115787127540
AALTO-1                 
1 42775U 17036L   19283.11806130  .00000700  00000-0  34129-4 0  9995
2 42775  97.3372 337.1197 0014062 175.6301 184.5060 15.21467319127457
URSA MAIOR              
1 42776U 17036M   19283.13434811  .00000752  00000-0  36285-4 0  9993
2 42776  97.3383 337.3213 0013897 175.3989 184.7377 15.21611727127463
COMPASS 2               
1 42777U 17036N   19283.39553756  .00001519  00000-0  67139-4 0  9996
2 42777  97.3427 339.0524 0012689 173.9417 186.1976 15.23153038127576
DIAMOND RED             
1 42783U 17036U   19283.69567968  .00000984  00000-0  45552-4 0  9996
2 42783  97.3390 338.7102 0012043 182.4162 177.7018 15.22363336127594
PEGASUS                 
1 42784U 17036V   19283.71793276  .00001120  00000-0  51002-4 0  9993
2 42784  97.3393 339.0081 0011931 181.5892 178.5309 15.22677989127610
DIAMOND GREEN           
1 42785U 17036W   19283.10295041  .00000870  00000-0  40624-4 0  9993
2 42785  97.3393 338.1588 0011867 185.0658 175.0460 15.22359558127495
DIAMOND BLUE            
1 42786U 17036X   19283.69368603  .00000969  00000-0  44904-4 0  9997
2 42786  97.3391 338.7329 0011758 183.0818 177.0348 15.22362289127580
NUDTSAT                 
1 42787U 17036Y   19283.11569361  .00001506  00000-0  65540-4 0  9996
2 42787  97.3431 339.2941 0009950 186.4740 173.6371 15.23724381127410
SUCHAI                  
1 42788U 17036Z   19282.70749328  .00001231  00000-0  55051-4 0  9995
2 42788  97.3401 338.3993 0011432 183.8439 176.2712 15.23123297127551
SKCUBE                  
1 42789U 17036AA  19282.73110474  .00001105  00000-0  49879-4 0  9994
2 42789  97.3396 338.3419 0011298 183.8419 176.2733 15.23008956127474
VZLUSAT-1               
1 42790U 17036AB  19282.70882475  .00001490  00000-0  64882-4 0  9998
2 42790  97.3414 338.8953 0010916 182.3136 177.8052 15.23717970127509
ROBUSTA-1B              
1 42792U 17036AD  19282.84640441  .00001159  00000-0  51920-4 0  9991
2 42792  97.3397 338.6317 0010871 183.7021 176.4137 15.23186067127518
CICERO 6                
1 42793U 17036AE  19283.13507079  .00000762  00000-0  35594-4 0  9992
2 42793  97.3378 338.6024 0010102 184.0728 176.0428 15.22720656127615
D-SAT                   
1 42794U 17036AF  19283.08183836  .00000202  00000-0  22644-4 0  9999
2 42794  97.5281 322.7276 0127821 123.3278 238.0257 14.91144157125233
CORVUS BC2              
1 42846U 17042X   19282.75287171  .00000027  00000-0  79614-5 0  9999
2 42846  97.5501 172.1567 0010736  44.5949 315.6132 14.92007709121873
CORVUS BC1              
1 42847U 17042Y   19282.76557094  .00000227  00000-0  27591-4 0  9993
2 42847  97.5503 172.2939 0010352  44.1929 316.0116 14.92108184121874
MIRATA                  
1 43015U 17073C   19283.00206027  .00000582  00000-0  50353-4 0  9996
2 43015  97.7167 199.8028 0255481 148.2207 213.4716 14.79139629102040
MAKERSAT 0              
1 43016U 17073D   19282.76587384  .00000436  00000-0  39052-4 0  9998
2 43016  97.7200 199.7789 0257840 149.5185 212.1307 14.78850929101999
ASTERIA                 
1 43020U 98067NH  19283.73441840  .00032667  00000-0  21476-3 0  9990
2 43020  51.6407  95.3276 0001845 222.4155 137.6702 15.75381231107803
DELLINGR (RBLE)         
1 43021U 98067NJ  19283.71289024  .00012780  00000-0  13408-3 0  9993
2 43021  51.6367 115.3291 0002488 169.9426 190.1619 15.64769085107535
AEROCUBE 7B (OCSD B)    
1 43042U 17071F   19282.89485495  .00003843  00000-0  98865-4 0  9991
2 43042  51.6374 219.2528 0004221 198.2490 161.8345 15.41778529103542
AEROCUBE 7C (OCSD C)    
1 43043U 17071G   19282.89484315  .00003727  00000-0  96170-4 0  9990
2 43043  51.6374 219.2674 0004411 203.3695 156.7091 15.41776165103513
CHEFSAT                 
1 43044U 17071H   19283.39101951  .00007087  00000-0  15733-3 0  9997
2 43044  51.6385 209.2380 0004150 202.6866 157.3938 15.44846850103699
ASGARDIA 1              
1 43049U 17071N   19282.83798263  .00003792  00000-0  97297-4 0  9993
2 43049  51.6384 218.9289 0001837 213.0846 147.0024 15.41894431103508
ISARA                   
1 43050U 17071P   19283.05546323  .00005620  00000-0  12894-3 0  9999
2 43050  51.6371 212.1887 0001678 205.0189 155.0716 15.44304610103617
PROPCUBE 2 (FAUNA)      
1 43052U 17071R   19283.21088521  .00003738  00000-0  95047-4 0  9990
2 43052  51.6381 216.1884 0001808 208.3702 151.7185 15.42215054103572
CORVUS BC3              
1 43118U 18004H   19282.88312291  .00000710  00000-0  33231-4 0  9990
2 43118  97.4762 349.8080 0009627 207.1868 152.8865 15.22976794 96701
MICROMAS-2A             
1 43131U 18004W   19282.78979595  .00001587  00000-0  67674-4 0  9991
2 43131  97.4792 350.6746 0008594 207.4682 152.6102 15.24405458 96749
SPACEBEE-4              
1 43139U 18004AE  19282.87660665  .00002520  00000-0  10281-3 0  9993
2 43139  97.4816 351.4211 0008065 208.4359 151.6440 15.25354174 96793
SPACEBEE-3              
1 43140U 18004AF  19282.87924756  .00003039  00000-0  12114-3 0  9992
2 43140  97.4827 351.7775 0007891 207.3479 152.7345 15.25964177 96811
SPACEBEE-2              
1 43141U 18004AG  19282.90111178  .00003262  00000-0  12900-3 0  9994
2 43141  97.4834 351.9206 0007886 206.5386 153.5450 15.26173646 96824
SPACEBEE-1              
1 43142U 18004AH  19282.85175289  .00003487  00000-0  13677-3 0  9993
2 43142  97.4838 352.0093 0007906 206.7467 153.3365 15.26407995 96819
CICERO 7                
1 43143U 18004AJ  19283.13235162  .00001520  00000-0  64751-4 0  9999
2 43143  97.4775 351.2294 0006565 214.1037 145.9779 15.24517516 96815
GOMX-4B                 
1 43196U 18015E   19283.22966144  .00000404  00000-0  19570-4 0  9999
2 43196  97.4050  49.2729 0017565 268.6212  91.3017 15.24025029 93636
GOMX-4A                 
1 43197U 18015F   19283.74933813  .00000506  00000-0  23708-4 0  9995
2 43197  97.4057  49.8226 0017599 266.8302 203.0067 15.24136229 93721
1KUNS-PF                
1 43466U 98067NP  19283.74206465  .00036566  00000-0  29575-3 0  9997
2 43466  51.6348 113.9606 0001455 200.4483 159.6456 15.70443259 80817
